GLOBALSTAR M045 [-]     
1 25676U 99019A   23283.70734980 -.00000045  00000+0  42587-3 0  9998
2 25676  51.9957 259.4520 0001095  61.7790 109.4375 12.27017214117832
GLOBALSTAR M019 [-]     
1 25677U 99019B   23283.60714199  .00000066  00000+0  16306-2 0  9999
2 25677  51.9901 346.8057 0001329 140.6627  29.4844 12.13844576110383
GLOBALSTAR M044 [-]     
1 25678U 99019C   23283.55611461 -.00000055  00000+0  39558-3 0  9996
2 25678  51.9957 221.2899 0006197 297.0139 234.2556 11.90223762 97997
GLOBALSTAR M042 [-]     
1 25679U 99019D   23284.08414390 -.00000028  00000+0  60305-3 0  9992
2 25679  52.0040 347.3530 0003492 113.2165 324.0967 12.22047911110129
GLOBALSTAR M025 [-]     
1 25770U 99031A   23283.92124684 -.00000044  00000+0  73991-3 0  9997
2 25770  51.9783 144.5679 0001045 144.5481 314.8410 11.22546188412612
GLOBALSTAR M049 [-]     
1 25771U 99031B   23283.92473183 -.00000098  00000+0 -11391-2 0  9994
2 25771  51.9842 148.4022 0003722  62.9499 297.1677 11.12101638 48978
GLOBALSTAR M047 [-]     
1 25772U 99031C   23284.08353310 -.00000073  00000+0 -93974-4 0  9994
2 25772  51.9823 203.7752 0015928 289.1238  70.7843 11.31916120 76228
GLOBALSTAR M052 [-]     
1 25773U 99031D   23283.66458553 -.00000098  00000+0 -10634-2 0  9990
2 25773  51.9848 266.3190 0002145 237.3263 295.5219 11.15046107409840
